{"fetched_at":"2026-07-13T18:17:02.296Z","source":"https://celestrak.org/NORAD/elements/gp.php?NAME=JILIN&FORMAT=JSON","constellation":"jilin-1-gaofen","records":[{"OBJECT_NAME":"JILIN-1 GAOFEN 03D51","OBJECT_ID":"2022-155B","EPOCH":"2026-07-13T08:08:32.426880","CLASSIFICATION_TYPE":"U","MEAN_MOTION":15.64725287,"ECCENTRICITY":0.00043069,"INCLINATION":97.6249,"RA_OF_ASC_NODE":341.2109,"ARG_OF_PERICENTER":238.4339,"MEAN_ANOMALY":121.65,"EPHEMERIS_TYPE":0,"NORAD_CAT_ID":54252,"ELEMENT_SET_NO":999,"REV_AT_EPOCH":20383,"BSTAR":0.00039222251,"MEAN_MOTION_DOT":0.00038045,"MEAN_MOTION_DDOT":0},{"OBJECT_NAME":"JILIN-1 GAOFEN 03D53","OBJECT_ID":"2022-155C","EPOCH":"2026-07-13T05:46:52.833792","CLASSIFICATION_TYPE":"U","MEAN_MOTION":15.54335133,"ECCENTRICITY":0.00048004,"INCLINATION":97.6241,"RA_OF_ASC_NODE":336.3395,"ARG_OF_PERICENTER":259.9014,"MEAN_ANOMALY":100.1698,"EPHEMERIS_TYPE":0,"NORAD_CAT_ID":54253,"ELEMENT_SET_NO":999,"REV_AT_EPOCH":20353,"BSTAR":0.00034058296,"MEAN_MOTION_DOT":0.00022221,"MEAN_MOTION_DDOT":0},{"OBJECT_NAME":"JILIN-1 GAOFEN 03D52","OBJECT_ID":"2022-155E","EPOCH":"2026-07-13T07:46:51.895200","CLASSIFICATION_TYPE":"U","MEAN_MOTION":15.6191588,"ECCENTRICITY":0.00036376,"INCLINATION":97.6223,"RA_OF_ASC_NODE":339.4148,"ARG_OF_PERICENTER":254.6018,"MEAN_ANOMALY":105.4837,"EPHEMERIS_TYPE":0,"NORAD_CAT_ID":54255,"ELEMENT_SET_NO":999,"REV_AT_EPOCH":20378,"BSTAR":0.00039167249,"MEAN_MOTION_DOT":0.0003402,"MEAN_MOTION_DDOT":0},{"OBJECT_NAME":"JILIN-1 GAOFEN 03D50","OBJECT_ID":"2022-167J","EPOCH":"2026-07-13T06:32:59.069760","CLASSIFICATION_TYPE":"U","MEAN_MOTION":15.35036192,"ECCENTRICITY":0.00053755,"INCLINATION":97.6844,"RA_OF_ASC_NODE":3.1945,"ARG_OF_PERICENTER":27.8532,"MEAN_ANOMALY":332.2998,"EPHEMERIS_TYPE":0,"NORAD_CAT_ID":54690,"ELEMENT_SET_NO":999,"REV_AT_EPOCH":19935,"BSTAR":0.00019737953,"MEAN_MOTION_DOT":0.00006625,"MEAN_MOTION_DDOT":0},{"OBJECT_NAME":"JILIN-1 GAOFEN 03D47","OBJECT_ID":"2022-167L","EPOCH":"2026-07-13T06:37:18.090048","CLASSIFICATION_TYPE":"U","MEAN_MOTION":15.34319374,"ECCENTRICITY":0.00079509,"INCLINATION":97.6941,"RA_OF_ASC_NODE":4.9352,"ARG_OF_PERICENTER":35.8018,"MEAN_ANOMALY":324.3756,"EPHEMERIS_TYPE":0,"NORAD_CAT_ID":54692,"ELEMENT_SET_NO":999,"REV_AT_EPOCH":19934,"BSTAR":0.00019070054,"MEAN_MOTION_DOT":0.00006256,"MEAN_MOTION_DDOT":0},{"OBJECT_NAME":"JILIN-1 GAOFEN 03D49","OBJECT_ID":"2022-167N","EPOCH":"2026-07-13T07:06:26.853696","CLASSIFICATION_TYPE":"U","MEAN_MOTION":15.38012913,"ECCENTRICITY":0.00061822,"INCLINATION":97.6818,"RA_OF_ASC_NODE":5.6053,"ARG_OF_PERICENTER":55.1378,"MEAN_ANOMALY":305.0447,"EPHEMERIS_TYPE":0,"NORAD_CAT_ID":54694,"ELEMENT_SET_NO":999,"REV_AT_EPOCH":19950,"BSTAR":0.0002119989,"MEAN_MOTION_DOT":0.00007844,"MEAN_MOTION_DDOT":0},{"OBJECT_NAME":"JILIN-1 GAOFEN 03D48","OBJECT_ID":"2022-167P","EPOCH":"2026-07-13T06:23:33.605088","CLASSIFICATION_TYPE":"U","MEAN_MOTION":15.35766408,"ECCENTRICITY":0.0006622,"INCLINATION":97.6889,"RA_OF_ASC_NODE":4.9051,"ARG_OF_PERICENTER":36.4727,"MEAN_ANOMALY":323.6966,"EPHEMERIS_TYPE":0,"NORAD_CAT_ID":54695,"ELEMENT_SET_NO":999,"REV_AT_EPOCH":19939,"BSTAR":0.00019342467,"MEAN_MOTION_DOT":0.00006646,"MEAN_MOTION_DDOT":0},{"OBJECT_NAME":"JILIN GAOFEN OBJECT A","OBJECT_ID":"2026-080A","EPOCH":"2026-07-13T00:17:31.958880","CLASSIFICATION_TYPE":"U","MEAN_MOTION":15.09189243,"ECCENTRICITY":0.00113812,"INCLINATION":97.6615,"RA_OF_ASC_NODE":269.4933,"ARG_OF_PERICENTER":343.1565,"MEAN_ANOMALY":16.9284,"EPHEMERIS_TYPE":0,"NORAD_CAT_ID":68691,"ELEMENT_SET_NO":999,"REV_AT_EPOCH":1355,"BSTAR":0.0002123377,"MEAN_MOTION_DOT":0.00003313,"MEAN_MOTION_DDOT":0},{"OBJECT_NAME":"JILIN GAOFEN OBJECT C","OBJECT_ID":"2026-080C","EPOCH":"2026-07-13T00:15:39.218976","CLASSIFICATION_TYPE":"U","MEAN_MOTION":15.09172584,"ECCENTRICITY":0.00122108,"INCLINATION":97.6598,"RA_OF_ASC_NODE":269.4765,"ARG_OF_PERICENTER":323.0944,"MEAN_ANOMALY":36.9443,"EPHEMERIS_TYPE":0,"NORAD_CAT_ID":68693,"ELEMENT_SET_NO":999,"REV_AT_EPOCH":1355,"BSTAR":0.00021711177,"MEAN_MOTION_DOT":0.00003389,"MEAN_MOTION_DDOT":0},{"OBJECT_NAME":"JILIN GAOFEN OBJECT H","OBJECT_ID":"2026-080H","EPOCH":"2026-07-10T15:20:06.898272","CLASSIFICATION_TYPE":"U","MEAN_MOTION":15.09105259,"ECCENTRICITY":0.00145489,"INCLINATION":97.6637,"RA_OF_ASC_NODE":267.2744,"ARG_OF_PERICENTER":353.5464,"MEAN_ANOMALY":6.5575,"EPHEMERIS_TYPE":0,"NORAD_CAT_ID":68698,"ELEMENT_SET_NO":999,"REV_AT_EPOCH":1316,"BSTAR":0.00021938544,"MEAN_MOTION_DOT":0.00003421,"MEAN_MOTION_DDOT":0}]}
