JILIN-1 GAOFEN 03D51    
1 54252U 22155B   26194.33926420  .00038045  00000+0  39222-3 0  9994
2 54252  97.6249 341.2109 0004306 238.4339 121.6500 15.64725287203830
JILIN-1 GAOFEN 03D53    
1 54253U 22155C   26194.24088928  .00022221  00000+0  34058-3 0  9998
2 54253  97.6241 336.3395 0004800 259.9014 100.1698 15.54335133203535
JILIN-1 GAOFEN 03D52    
1 54255U 22155E   26194.32421175  .00034020  00000+0  39167-3 0  9990
2 54255  97.6223 339.4148 0003637 254.6018 105.4837 15.61915880203781
JILIN-1 GAOFEN 03D50    
1 54690U 22167J   26194.27290590  .00006625  00000+0  19738-3 0  9997
2 54690  97.6844   3.1945 0005375  27.8532 332.2998 15.35036192199351
JILIN-1 GAOFEN 03D47    
1 54692U 22167L   26194.27590382  .00006256  00000+0  19070-3 0  9990
2 54692  97.6941   4.9352 0007950  35.8018 324.3756 15.34319374199349
JILIN-1 GAOFEN 03D49    
1 54694U 22167N   26194.29614414  .00007844  00000+0  21200-3 0  9999
2 54694  97.6818   5.6053 0006182  55.1378 305.0447 15.38012913199504
JILIN-1 GAOFEN 03D48    
1 54695U 22167P   26194.26636117  .00006646  00000+0  19342-3 0  9994
2 54695  97.6889   4.9051 0006622  36.4727 323.6966 15.35766408199393
JILIN GAOFEN OBJECT A   
1 68691U 26080A   26194.01217545  .00003313  00000+0  21234-3 0  9997
2 68691  97.6615 269.4933 0011381 343.1565  16.9284 15.09189243 13559
JILIN GAOFEN OBJECT C   
1 68693U 26080C   26194.01087059  .00003389  00000+0  21711-3 0  9997
2 68693  97.6598 269.4765 0012210 323.0944  36.9443 15.09172584 13553
JILIN GAOFEN OBJECT H   
1 68698U 26080H   26191.63896873  .00003421  00000+0  21939-3 0  9998
2 68698  97.6637 267.2744 0014548 353.5464   6.5575 15.09105259 13167
